CCSDS_OMM_VERS = 2.0
CREATION_DATE  = 
ORIGINATOR     = 

OBJECT_NAME    = SL-14 R/B
OBJECT_ID      = 1991-042B
CENTER_NAME    = EARTH
REF_FRAME      = TEME
TIME_SYSTEM    = UTC
MEAN_ELEMENT_THEORY = SGP/SGP4

EPOCH          = 2026-01-21T10:06:56.898432
MEAN_MOTION    = 14.81781393
ECCENTRICITY   = .0018073
INCLINATION    = 82.4920
RA_OF_ASC_NODE = 264.5167
ARG_OF_PERICENTER = 40.3443
MEAN_ANOMALY   = 319.9108

EPHEMERIS_TYPE = 0
CLASSIFICATION_TYPE = U
NORAD_CAT_ID   = 21423
ELEMENT_SET_NO = 999
REV_AT_EPOCH   = 84607
BSTAR          = .88077E-4
MEAN_MOTION_DOT = .72E-5
MEAN_MOTION_DDOT = 0

CCSDS_OMM_VERS = 2.0
CREATION_DATE  = 
ORIGINATOR     = 

OBJECT_NAME    = ERS-1
OBJECT_ID      = 1991-050A
CENTER_NAME    = EARTH
REF_FRAME      = TEME
TIME_SYSTEM    = UTC
MEAN_ELEMENT_THEORY = SGP/SGP4

EPOCH          = 2026-01-21T11:58:19.017408
MEAN_MOTION    = 14.39403560
ECCENTRICITY   = .0031634
INCLINATION    = 98.7897
RA_OF_ASC_NODE = 38.5476
ARG_OF_PERICENTER = 344.1968
MEAN_ANOMALY   = 15.8229

EPHEMERIS_TYPE = 0
CLASSIFICATION_TYPE = U
NORAD_CAT_ID   = 21574
ELEMENT_SET_NO = 999
REV_AT_EPOCH   = 80894
BSTAR          = .22541E-3
MEAN_MOTION_DOT = .659E-5
MEAN_MOTION_DDOT = 0

CCSDS_OMM_VERS = 2.0
CREATION_DATE  = 
ORIGINATOR     = 

OBJECT_NAME    = ARIANE 40 R/B
OBJECT_ID      = 1991-050F
CENTER_NAME    = EARTH
REF_FRAME      = TEME
TIME_SYSTEM    = UTC
MEAN_ELEMENT_THEORY = SGP/SGP4

EPOCH          = 2026-01-21T09:13:45.164928
MEAN_MOTION    = 14.42851632
ECCENTRICITY   = .0002694
INCLINATION    = 98.2107
RA_OF_ASC_NODE = 75.3740
ARG_OF_PERICENTER = 196.2355
MEAN_ANOMALY   = 163.8749

EPHEMERIS_TYPE = 0
CLASSIFICATION_TYPE = U
NORAD_CAT_ID   = 21610
ELEMENT_SET_NO = 999
REV_AT_EPOCH   = 81217
BSTAR          = .21965E-3
MEAN_MOTION_DOT = .691E-5
MEAN_MOTION_DDOT = 0

CCSDS_OMM_VERS = 2.0
CREATION_DATE  = 
ORIGINATOR     = 

OBJECT_NAME    = INTERCOSMOS 25
OBJECT_ID      = 1991-086A
CENTER_NAME    = EARTH
REF_FRAME      = TEME
TIME_SYSTEM    = UTC
MEAN_ELEMENT_THEORY = SGP/SGP4

EPOCH          = 2026-01-21T08:21:23.260032
MEAN_MOTION    = 12.11867135
ECCENTRICITY   = .1486071
INCLINATION    = 82.6088
RA_OF_ASC_NODE = 338.6183
ARG_OF_PERICENTER = 218.9547
MEAN_ANOMALY   = 129.4779

EPHEMERIS_TYPE = 0
CLASSIFICATION_TYPE = U
NORAD_CAT_ID   = 21819
ELEMENT_SET_NO = 999
REV_AT_EPOCH   = 49095
BSTAR          = .22943E-3
MEAN_MOTION_DOT = .1163E-4
MEAN_MOTION_DDOT = 0

CCSDS_OMM_VERS = 2.0
CREATION_DATE  = 
ORIGINATOR     = 

OBJECT_NAME    = SL-8 R/B
OBJECT_ID      = 1992-008B
CENTER_NAME    = EARTH
REF_FRAME      = TEME
TIME_SYSTEM    = UTC
MEAN_ELEMENT_THEORY = SGP/SGP4

EPOCH          = 2026-01-20T20:59:52.897920
MEAN_MOTION    = 13.75967115
ECCENTRICITY   = .00333376
INCLINATION    = 82.9290
RA_OF_ASC_NODE = 303.3425
ARG_OF_PERICENTER = 268.5208
MEAN_ANOMALY   = 157.1764

EPHEMERIS_TYPE = 0
CLASSIFICATION_TYPE = U
NORAD_CAT_ID   = 21876
ELEMENT_SET_NO = 999
REV_AT_EPOCH   = 70284
BSTAR          = .98593586E-4
MEAN_MOTION_DOT = .111E-5
MEAN_MOTION_DDOT = 0

CCSDS_OMM_VERS = 2.0
CREATION_DATE  = 
ORIGINATOR     = 

OBJECT_NAME    = SL-8 R/B
OBJECT_ID      = 1992-020B
CENTER_NAME    = EARTH
REF_FRAME      = TEME
TIME_SYSTEM    = UTC
MEAN_ELEMENT_THEORY = SGP/SGP4

EPOCH          = 2026-01-21T11:35:18.900096
MEAN_MOTION    = 13.75540215
ECCENTRICITY   = .0030169
INCLINATION    = 82.9301
RA_OF_ASC_NODE = 188.8036
ARG_OF_PERICENTER = 70.5941
MEAN_ANOMALY   = 343.2256

EPHEMERIS_TYPE = 0
CLASSIFICATION_TYPE = U
NORAD_CAT_ID   = 21938
ELEMENT_SET_NO = 999
REV_AT_EPOCH   = 69464
BSTAR          = .19676E-3
MEAN_MOTION_DOT = .205E-5
MEAN_MOTION_DDOT = 0

CCSDS_OMM_VERS = 2.0
CREATION_DATE  = 
ORIGINATOR     = 

OBJECT_NAME    = USA 81
OBJECT_ID      = 1992-023A
CENTER_NAME    = EARTH
REF_FRAME      = TEME
TIME_SYSTEM    = UTC
MEAN_ELEMENT_THEORY = SGP/SGP4

EPOCH          = 2026-01-21T10:25:55.627968
MEAN_MOTION    = 14.32346040
ECCENTRICITY   = .0001974
INCLINATION    = 85.0109
RA_OF_ASC_NODE = 158.6854
ARG_OF_PERICENTER = 116.2302
MEAN_ANOMALY   = 243.9093

EPHEMERIS_TYPE = 0
CLASSIFICATION_TYPE = U
NORAD_CAT_ID   = 21949
ELEMENT_SET_NO = 999
REV_AT_EPOCH   = 8802
BSTAR          = .13642E-3
MEAN_MOTION_DOT = .388E-5
MEAN_MOTION_DDOT = 0

CCSDS_OMM_VERS = 2.0
CREATION_DATE  = 
ORIGINATOR     = 

OBJECT_NAME    = COSMOS 2219
OBJECT_ID      = 1992-076A
CENTER_NAME    = EARTH
REF_FRAME      = TEME
TIME_SYSTEM    = UTC
MEAN_ELEMENT_THEORY = SGP/SGP4

EPOCH          = 2026-01-21T11:31:00.320448
MEAN_MOTION    = 14.14081360
ECCENTRICITY   = .0020841
INCLINATION    = 71.0615
RA_OF_ASC_NODE = 116.7627
ARG_OF_PERICENTER = 272.5339
MEAN_ANOMALY   = 87.3397

EPHEMERIS_TYPE = 0
CLASSIFICATION_TYPE = U
NORAD_CAT_ID   = 22219
ELEMENT_SET_NO = 999
REV_AT_EPOCH   = 71170
BSTAR          = -.12176E-4
MEAN_MOTION_DOT = -.7E-6
MEAN_MOTION_DDOT = 0

CCSDS_OMM_VERS = 2.0
CREATION_DATE  = 
ORIGINATOR     = 

OBJECT_NAME    = SL-16 R/B
OBJECT_ID      = 1992-076B
CENTER_NAME    = EARTH
REF_FRAME      = TEME
TIME_SYSTEM    = UTC
MEAN_ELEMENT_THEORY = SGP/SGP4

EPOCH          = 2026-01-21T11:41:20.546304
MEAN_MOTION    = 14.16850628
ECCENTRICITY   = .0012556
INCLINATION    = 71.0006
RA_OF_ASC_NODE = 287.8061
ARG_OF_PERICENTER = 177.9148
MEAN_ANOMALY   = 354.5447

EPHEMERIS_TYPE = 0
CLASSIFICATION_TYPE = U
NORAD_CAT_ID   = 22220
ELEMENT_SET_NO = 999
REV_AT_EPOCH   = 71514
BSTAR          = -.22808E-4
MEAN_MOTION_DOT = -.94E-6
MEAN_MOTION_DDOT = 0

CCSDS_OMM_VERS = 2.0
CREATION_DATE  = 
ORIGINATOR     = 

OBJECT_NAME    = COSMOS 2221
OBJECT_ID      = 1992-080A
CENTER_NAME    = EARTH
REF_FRAME      = TEME
TIME_SYSTEM    = UTC
MEAN_ELEMENT_THEORY = SGP/SGP4

EPOCH          = 2026-01-21T08:26:19.975776
MEAN_MOTION    = 14.95966877
ECCENTRICITY   = .0014611
INCLINATION    = 82.5069
RA_OF_ASC_NODE = 324.4076
ARG_OF_PERICENTER = 359.4450
MEAN_ANOMALY   = 0.6753

EPHEMERIS_TYPE = 0
CLASSIFICATION_TYPE = U
NORAD_CAT_ID   = 22236
ELEMENT_SET_NO = 999
REV_AT_EPOCH   = 77371
BSTAR          = .41587E-3
MEAN_MOTION_DOT = .4694E-4
MEAN_MOTION_DDOT = 0

CCSDS_OMM_VERS = 2.0
CREATION_DATE  = 
ORIGINATOR     = 

OBJECT_NAME    = SL-16 R/B
OBJECT_ID      = 1992-093B
CENTER_NAME    = EARTH
REF_FRAME      = TEME
TIME_SYSTEM    = UTC
MEAN_ELEMENT_THEORY = SGP/SGP4

EPOCH          = 2026-01-20T16:24:31.885632
MEAN_MOTION    = 14.15441093
ECCENTRICITY   = .00040982
INCLINATION    = 71.0223
RA_OF_ASC_NODE = 105.0465
ARG_OF_PERICENTER = 348.4142
MEAN_ANOMALY   = 11.6886

EPHEMERIS_TYPE = 0
CLASSIFICATION_TYPE = U
NORAD_CAT_ID   = 22285
ELEMENT_SET_NO = 999
REV_AT_EPOCH   = 70636
BSTAR          = .17716656E-3
MEAN_MOTION_DOT = .298E-5
MEAN_MOTION_DDOT = 0

CCSDS_OMM_VERS = 2.0
CREATION_DATE  = 
ORIGINATOR     = 

OBJECT_NAME    = COSMOS 2228
OBJECT_ID      = 1992-094A
CENTER_NAME    = EARTH
REF_FRAME      = TEME
TIME_SYSTEM    = UTC
MEAN_ELEMENT_THEORY = SGP/SGP4

EPOCH          = 2026-01-20T22:20:36.233088
MEAN_MOTION    = 14.96944816
ECCENTRICITY   = .00195694
INCLINATION    = 82.5185
RA_OF_ASC_NODE = 283.0362
ARG_OF_PERICENTER = 100.9111
MEAN_ANOMALY   = 259.4315

EPHEMERIS_TYPE = 0
CLASSIFICATION_TYPE = U
NORAD_CAT_ID   = 22286
ELEMENT_SET_NO = 999
REV_AT_EPOCH   = 76891
BSTAR          = .50451121E-3
MEAN_MOTION_DOT = .5844E-4
MEAN_MOTION_DDOT = 0

